HST                     
1 20580U 90037B   24025.93436184  .00006637  00000+0  32951-3 0  9999
2 20580  28.4665 223.3460 0002300 281.0766  78.9567 15.15692008655266
POLAR                   
1 23802U 96013A   24025.64809744  .00000286  00000+0  00000+0 0  9993
2 23802  79.0220 236.0070 5814180 238.6744  51.8207  1.29846956133512
SWAS                    
1 25560U 98071A   24026.13742767  .00006503  00000+0  54533-3 0  9990
2 25560  69.9004 301.5822 0006281 180.4059 179.7096 14.98818633365940
CXO                     
1 25867U 99040B   24027.71675503  .00000624  00000+0  00000+0 0  9999
2 25867  38.5126 168.4056 8999355 285.5718   0.1832  0.37808521 14035
XMM-NEWTON              
1 25989U 99066A   24021.35967706  .00000090  00000+0  00000+0 0  9992
2 25989  68.3455 295.0754 5296671  79.3351  90.9743  0.50132723 18613
TERRA                   
1 25994U 99068A   24026.58758358  .00000936  00000+0  20647-3 0  9993
2 25994  98.0683  94.1678 0003113  90.6633  45.6016 14.59558267282247
CLUSTER II-FM7 (SAMBA)  
1 26410U 00041A   24029.12091100  .00000596  00000+0  00000+0 0  9997
2 26410 137.9536 355.5502 7119048 210.2547 358.9881  0.44192369 16428
CLUSTER II-FM6 (SALSA)  
1 26411U 00041B   24015.54795873  .00002824  00000+0  00000+0 0  9993
2 26411 145.1481  11.4032 8707777 225.6856 359.0940  0.44218190 16420
CLUSTER II-FM5 (RUMBA)  
1 26463U 00045A   24029.11518076  .00002281  00000+0  00000+0 0  9997
2 26463 147.8565  10.0259 8244615 225.0661 359.0029  0.44215116 16355
CLUSTER II-FM8 (TANGO)  
1 26464U 00045B   24029.12064810  .00000595  00000+0  00000+0 0  9997
2 26464 137.9604 355.5467 7115584 210.2614 358.9841  0.44221565 16437
ODIN                    
1 26702U 01007A   24026.59151547  .00010822  00000+0  52453-3 0  9990
2 26702  97.4922  42.7291 0009985  64.5700 295.6566 15.18661319255237
TIMED                   
1 26998U 01055B   24026.60258842  .00002625  00000+0  27138-3 0  9992
2 26998  74.0709 186.3408 0002242 270.6359  89.4566 14.90671113200570
INTEGRAL                
1 27540U 02048A   24026.27347934 -.00000347  00000+0  00000+0 0  9998
2 27540  87.5694  27.5755 8688653 285.9605 134.1565  0.37583789 23357
CORIOLIS                
1 27640U 03001A   24026.55443996  .00000284  00000+0  15580-3 0  9997
2 27640  98.7151  36.0502 0013732 201.9190 158.1400 14.19386878 90403
SORCE                   
1 27651U 03004A   24026.55441323  .00004534  00000+0  43176-3 0  9998
2 27651  39.9923 165.4494 0020745 304.6055  55.2779 14.93772578140904
MOST                    
1 27843U 03031D   24026.60422917  .00000205  00000+0  11507-3 0  9999
2 27843  98.7079  35.6222 0008946 249.3669 110.6549 14.20892913 66773
SCISAT 1                
1 27858U 03036A   24026.61502004  .00001427  00000+0  19897-3 0  9994
2 27858  73.9324 101.8773 0008078 353.1302   6.9761 14.78769360102336
SWIFT                   
1 28485U 04047A   24026.54016491  .00012211  00000+0  60496-3 0  9990
2 28485  20.5567 119.2852 0008201 236.5736 123.3916 15.15180452 52481
CLOUDSAT                
1 29107U 06016A   24026.58404269  .00001553  00000+0  26482-3 0  9992
2 29107  98.4015   5.6083 0004797 283.3041  76.7629 14.70498310945077
CALIPSO                 
1 29108U 06016B   24026.58467992  .00002496  00000+0  47426-3 0  9993
2 29108  98.4036   5.1153 0001511  89.9854 270.1521 14.65079225945061
HINODE (SOLAR-B)        
1 29479U 06041A   24026.57947917  .00001273  00000+0  24067-3 0  9999
2 29479  98.0972  43.8924 0018302 167.6899 192.4755 14.66003655926880
SJ-6C                   
1 29505U 06046A   24026.61109720  .00006945  00000+0  54368-3 0  9999
2 29505  97.7402  54.1372 0005051 268.6017  91.4628 15.01332934940627
SJ-6D                   
1 29506U 06046B   24026.59866176  .00003133  00000+0  28111-3 0  9995
2 29506  97.7526  52.8337 0003117  73.4881 286.6683 14.96472831939994
AGILE                   
1 31135U 07013A   24021.96400288  .00206907  00000+0  59958-3 0  9992
2 31135   2.4646 209.6114 0002565  63.6321 296.3997 15.90884781567788
FGRST (GLAST)           
1 33053U 08029A   24026.54958989  .00004748  00000+0  22680-3 0  9997
2 33053  25.5832 107.9334 0011293 167.9404 192.1404 15.15640677862903
WISE                    
1 36119U 09071A   24026.56389667  .00028984  00000+0  48164-3 0  9997
2 36119  97.1702  62.5241 0000819  28.8872 331.2426 15.52039338786046
SDO                     
1 36395U 10005A   24023.24482412 -.00000100  00000+0  00000+0 0  9990
2 36395  32.8242  99.8795 0002413 212.0197 155.8520  1.00268768 51288
CRYOSAT 2               
1 36508U 10013A   24026.55422591 -.00000020  00000+0 -57354-5 0  9996
2 36508  92.0276  66.4619 0005179  66.8210 293.3542 14.51896601731467
X-SAT                   
1 37389U 11015C   24026.55604585  .00000191  00000+0  99457-4 0  9998
2 37389  98.2953  38.3882 0014701  30.4000 329.8029 14.24619128663400
GCOM-W1 (SHIZUKU)       
1 38337U 12025A   24026.58613148  .00001307  00000+0  29994-3 0  9990
2 38337  98.2257 328.7083 0001445  68.3409 343.7464 14.57146059621961
NUSTAR                  
1 38358U 12031A   24006.08911832  .00004808  00000+0  36960-3 0  9994
2 38358   6.0245 180.9333 0011284 278.4437  81.4413 14.94064697629833
NEOSSAT                 
1 39089U 13009D   24026.53350383  .00000418  00000+0  16144-3 0  9997
2 39089  98.4025 217.6398 0010687 332.6511  27.4111 14.35041332571542
BRITE-AUSTRIA           
1 39091U 13009F   24026.52624979  .00000440  00000+0  16706-3 0  9993
2 39091  98.3838 217.9933 0009829 331.2391  28.8252 14.35665862571799
IRIS                    
1 39197U 13033A   24026.53681371  .00002998  00000+0  38908-3 0  9995
2 39197  97.9635 217.9605 0025277 285.1925  74.6492 14.81303404570962
HISAKI (SPRINT-A)       
1 39253U 13049A   24026.19469540  .00000148  00000+0  11288-3 0  9996
2 39253  29.7214 337.7881 0137146 140.2679 220.8028 13.55368657512893
CASSIOPE                
1 39265U 13055A   24026.56389403  .00038465  00000+0  86138-3 0  9995
2 39265  80.9590 353.6973 0528205 348.1368  10.7762 14.62248800537495
STSAT-3                 
1 39422U 13066G   24026.52227183  .00003844  00000+0  36718-3 0  9996
2 39422  97.5067  12.1279 0022954 115.4066 244.9534 14.93641297553519
SWARM B                 
1 39451U 13067A   24026.59924194  .00004336  00000+0  20646-3 0  9992
2 39451  87.7457 245.0705 0002539  89.0564 271.0971 15.18897950550343
SWARM A                 
1 39452U 13067B   24026.54263576  .00007754  00000+0  26596-3 0  9995
2 39452  87.3451  14.2866 0002504  88.7388 271.4148 15.30001514571935
SWARM C                 
1 39453U 13067C   24026.54253248  .00007887  00000+0  27054-3 0  9998
2 39453  87.3452  12.8831 0002494  88.9903 271.1632 15.30002494571894
BRITE-CA1 (TORONTO)     
1 40020U 14033L   24026.33068377  .00002896  00000+0  47874-3 0  9995
2 40020  97.8526 168.7534 0083890 187.3839 172.6138 14.68790452513896
OCO 2                   
1 40059U 14035A   24026.57146680  .00001144  00000+0  26372-3 0  9994
2 40059  98.2260 329.4333 0001174 108.3881 251.7445 14.57151394508973
BRITE-PL2 (HEWELIUSZ)   
1 40119U 14049B   24026.21914278  .00003986  00000+0  44078-3 0  9992
2 40119  97.8812 126.7110 0017441 113.2459 247.0596 14.87847243511314
RESURS P2               
1 40360U 14087A   24026.59510499  .00022846  00000+0  38909-3 0  9992
2 40360  97.1633 113.1096 0008372 103.9279 256.2905 15.51355682507378
MMS 1                   
1 40482U 15011A   24026.58334491 -.00002342  00000+0  00000+0 0  9997
2 40482  38.9834  25.1077 9168664 134.4046 316.5859  0.28145881  1318
MMS 2                   
1 40483U 15011B   24026.58334491 -.00002342  00000+0  00000+0 0  9998
2 40483  38.9876  25.1117 9168161 134.3973 316.6003  0.28145844  1311
MMS 3                   
1 40484U 15011C   24026.58334491 -.00002341  00000+0  00000+0 0  9998
2 40484  38.9828  25.1086 9167564 134.4035 316.5888  0.28145948  1315
MMS 4                   
1 40485U 15011D   24026.58334491 -.00002350  00000+0  00000+0 0  9999
2 40485  38.9866  25.1066 9169627 134.3988 316.7327  0.28057495  1313
ASTROSAT                
1 40930U 15052A   24006.16340880  .00001943  00000+0  17423-3 0  9997
2 40930   5.9997  85.2473 0008613 282.4744  77.4420 14.78268977447249
DAMPE                   
1 41173U 15078A   24026.58507348  .00002347  00000+0  92755-4 0  9998
2 41173  97.4218  20.8467 0011382 288.8789  71.1215 15.26460288451224
PISAT                   
1 41784U 16059B   24026.60361971  .00001713  00000+0  32322-3 0  9998
2 41784  97.8483  55.0816 0032241 105.7894 254.6869 14.65367624391777
HXMT (HUIYAN)           
1 42758U 17034A   24026.36018825  .00011884  00000+0  62988-3 0  9995
2 42758  43.0168 345.8503 0002082 324.2387  35.8320 15.15353026365173
FLYING LAPTOP           
1 42831U 17042G   24026.58633833  .00003650  00000+0  34503-3 0  9996
2 42831  97.3803 215.9056 0012705 190.8260 169.2690 14.94201703355837
ZHANGZHENG-1 (CSES)     
1 43194U 18015C   24026.56939848  .00015664  00000+0  70104-3 0  9998
2 43194  97.5880 169.0765 0016914 302.3655  57.5942 15.21244241332016
SALSAT                  
1 46495U 20068K   24026.44602581  .00008025  00000+0  48778-3 0  9999
2 46495  97.7991 342.6030 0016494  81.3485 278.9611 15.10629249182748
IXPE                    
1 49954U 21121A   24006.41326890  .00004809  00000+0  34734-3 0  9997
2 49954   0.2276 159.2181 0010076  26.1569 174.6137 14.96025383113476
